OSCAR 7 (AO-7)          
1 07530U 74089B   19259.80257559 -.00000048  00000-0 -17997-4 0  9991
2 07530 101.7542 226.5716 0012046 171.4737 253.2908 12.53639769 51814
UOSAT 2 (UO-11)         
1 14781U 84021B   19259.49999057  .00000051  00000-0  12384-4 0  9992
2 14781  97.6072 279.9507 0009248  33.7472 326.4330 14.83106101912077
LUSAT (LO-19)           
1 20442U 90005G   19258.83816337 -.00000004  00000-0  14788-4 0  9997
2 20442  98.6538 200.7122 0010670 244.9223 115.0854 14.32932677549148
ITAMSAT (IO-26)         
1 22826U 93061D   19258.89804978 -.00000019  00000-0  10613-4 0  9993
2 22826  98.9041 249.5787 0010035  88.1167 272.1164 14.30400226354653
RADIO ROSTO (RS-15)     
1 23439U 94085A   19259.18212151 -.00000053  00000-0 -29756-3 0  9996
2 23439  64.8191 331.4089 0145498  95.8571 265.8958 11.27568154 18143
JAS-2 (FO-29)           
1 24278U 96046B   19259.17060967 -.00000026  00000-0  99719-5 0  9999
2 24278  98.5510  40.4875 0350489   8.2104 352.4572 13.53092823139901
TECHSAT 1B (GO-32)      
1 25397U 98043D   19259.78981788 -.00000017  00000-0  11949-4 0  9999
2 25397  98.6933 198.8624 0002178 112.6496 247.4913 14.23670452100691
ISS (ZARYA)             
1 25544U 98067A   19260.01205097  .00001706  00000-0  37786-4 0  9991
2 25544  51.6436 265.8368 0007505  56.3765  38.5969 15.50092421189506
PCSAT (NO-44)           
1 26931U 01043C   19259.06065059 -.00000013  00000-0  26871-4 0  9999
2 26931  67.0506 133.0658 0007450 271.5516  88.4732 14.30552248937753
SAUDISAT 1C (SO-50)     
1 27607U 02058C   19259.82216363 -.00000029  00000-0  16737-4 0  9994
2 27607  64.5545 134.0334 0077028 239.0808 120.2707 14.75571332900337
CUTE-1 (CO-55)          
1 27844U 03031E   19259.49499280  .00000028  00000-0  32306-4 0  9991
2 27844  98.6853 266.3690 0010741 127.2259 232.9900 14.22194379841054
CUBESAT XI-IV (CO-57)   
1 27848U 03031J   19259.79422972  .00000020  00000-0  28710-4 0  9998
2 27848  98.6928 267.1826 0010484 137.1075 223.0922 14.21787603840940
MOZHAYETS 4 (RS-22)     
1 27939U 03042A   19259.82141129  .00000079  00000-0  22719-4 0  9994
2 27939  98.0539  33.9448 0013786 138.6279 221.5981 14.66802208853751
CUBESAT XI-V            
1 28895U 05043F   19258.92584187  .00000084  00000-0  24869-4 0  9998
2 28895  97.9722  38.6621 0018082  71.9141 288.4029 14.63690086740308
CUTE-1.7+APD II (CO-65) 
1 32785U 08021C   19259.50634943  .00000143  00000-0  21063-4 0  9990
2 32785  97.5541 255.0038 0012275 331.6229  28.4319 14.88343688617042
DELFI-C3 (DO-64)        
1 32789U 08021G   19258.72380013  .00000539  00000-0  39847-4 0  9991
2 32789  97.4569 305.6719 0012463 173.2306 186.9093 15.07106789620378
SEEDS II (CO-66)        
1 32791U 08021J   19258.97063859  .00000215  00000-0  27174-4 0  9998
2 32791  97.5305 260.5510 0012032 304.7632  55.2453 14.90867406617413
YUBILEINY (RS-30)       
1 32953U 08025A   19259.70599173  .00000020  00000-0  75656-4 0  9999
2 32953  82.4987  88.7840 0018826 294.5740  65.3378 12.43091161513495
KKS-1 (KISEKI)          
1 33499U 09002H   19259.46377338  .00000034  00000-0  13036-4 0  9990
2 33499  98.3446 101.0131 0007917 283.3432  76.6893 14.75461639572469
SWISSCUBE               
1 35932U 09051B   19259.46630546  .00000095  00000-0  32507-4 0  9992
2 35932  98.5969  68.1136 0006552 246.9756 113.0750 14.56308808529840
BEESAT-1                
1 35933U 09051C   19259.46387790  .00000076  00000-0  28233-4 0  9993
2 35933  98.5989  69.9079 0004674 262.0673  97.9993 14.56394901529958
ITUPSAT1                
1 35935U 09051E   19259.71088399  .00000057  00000-0  24409-4 0  9996
2 35935  98.6099  70.3937 0006991 258.8248 101.2162 14.55551522529733
XIWANG-1 (HOPE-1)       
1 36122U 09072B   19258.73719453 -.00000011  00000-0  81602-4 0  9990
2 36122 100.0763 256.9407 0007877 137.4887 222.6839 13.16351228468599
JUGNU                   
1 37839U 11058B   19258.11680575  .00000309  00000-0  22467-4 0  9990
2 37839  19.9604 158.5532 0018945 221.4669 284.6732 14.12658347409665
SRMSAT                  
1 37841U 11058D   19258.29495675  .00000293  00000-0  16073-4 0  9995
2 37841  19.9708 216.0836 0012069  90.3928  66.2272 14.10638673409124
M-CUBED & EXP-1 PRIME   
1 37855U 11061F   19258.78807656  .00000849  00000-0  50286-4 0  9995
2 37855 101.7115 200.1182 0173083 172.5951 187.7880 15.05575872430182
STRAND-1                
1 39090U 13009E   19258.61205289  .00000013  00000-0  19889-4 0  9995
2 39090  98.4807 103.0476 0009812  30.9998 329.1764 14.35096532343143
SOMP                    
1 39134U 13015E   19258.89225484  .00000568  00000-0  35190-4 0  9998
2 39134  64.8619  91.4123 0035678 289.2878  70.4391 15.20311844353777
BEESAT-3                
1 39135U 13015F   19259.03909136  .00000399  00000-0  29546-4 0  9999
2 39135  64.8679 110.5025 0033077 299.8151  59.9688 15.17594110353800
BEESAT-2                
1 39136U 13015G   19258.97826876  .00000527  00000-0  36409-4 0  9990
2 39136  64.8682 114.7757 0024795 304.1619  55.7155 15.17013167353710
ZACUBE-1 (TSHEPISOSAT)  
1 39417U 13066B   19259.48909684  .00000148  00000-0  24883-4 0  9996
2 39417  97.5627 267.9452 0060492  99.3710 261.4350 14.81146810314336
GOMX-1                  
1 39430U 13066Q   19259.79047430  .00000168  00000-0  39774-4 0  9994
2 39430  97.7538 210.4449 0150955 330.6569  28.6218 14.59284053309742
CUBEBUG-2 (LO-74)       
1 39440U 13066AA  19258.97351566  .00000118  00000-0  23293-4 0  9996
2 39440  97.6073 252.1620 0080848 153.9377 206.5938 14.75884101313149
FUNCUBE-1 (AO-73)       
1 39444U 13066AE  19259.03480900  .00000175  00000-0  27642-4 0  9998
2 39444  97.5601 269.5472 0059644  94.4721 266.3310 14.81971996313164
UWE-3                   
1 39446U 13066AG  19259.50161116  .00000141  00000-0  25247-4 0  9999
2 39446  97.5842 259.7744 0071253 126.2273 234.5554 14.78419386312535
SPROUT                  
1 39770U 14029E   19259.77834064  .00000302  00000-0  39456-4 0  9993
2 39770  97.8871   2.5062 0009226 143.2466 216.9358 14.87417665288223
UNISAT-6                
1 40012U 14033C   19259.41874582  .00000133  00000-0  27093-4 0  9995
2 40012  97.7449 122.1111 0058491 166.9807 193.2928 14.74005752281901
DUCHIFAT-1              
1 40021U 14033M   19259.35866243  .00000312  00000-0  37668-4 0  9991
2 40021  97.9228 184.2480 0014185 111.4896 248.7836 14.90679473284903
QB50P1                  
1 40025U 14033R   19259.34799582  .00000184  00000-0  25496-4 0  9998
2 40025  97.9029 178.8786 0013620 120.8797 239.3762 14.88980192284668
NUDT-PHONESAT           
1 40900U 15049B   19259.86350874  .00001278  00000-0  57261-4 0  9992
2 40900  97.4361 268.3234 0011589 223.7630 256.2899 15.23029562221382
ZDPS 2A                 
1 40901U 15049C   19259.73375059  .00000666  00000-0  36247-4 0  9992
2 40901  97.4608 264.2651 0011761 248.1679 198.4930 15.17828207220895
ZDPS 2B                 
1 40902U 15049D   19259.76883780  .00000584  00000-0  32306-4 0  9992
2 40902  97.4559 261.7241 0011980 245.9489 199.3887 15.17676457220872
XW-2A                   
1 40903U 15049E   19259.78810671  .00001324  00000-0  32931-4 0  9991
2 40903  97.3296 303.0329 0013583 172.4259 278.7388 15.42082204224137
KAITUO 1A               
1 40904U 15049F   19259.80619419  .00000621  00000-0  36324-4 0  9991
2 40904  97.4693 260.2851 0013033 255.1386 229.1137 15.15430132220645
2015-049G               
1 40905U 15049G   19259.81804721  .00000242  00000-0  16785-4 0  9993
2 40905  97.4738 257.7550 0014224 249.5900 232.8515 15.14340177220510
XW-2C                   
1 40906U 15049H   19259.90948610  .00000309  00000-0  19650-4 0  9998
2 40906  97.4702 260.5082 0013221 245.0065 179.4907 15.15747965220667
XW-2D                   
1 40907U 15049J   19259.75363510  .00000412  00000-0  24913-4 0  9995
2 40907  97.4678 260.0348 0012612 242.6891 235.5779 15.15941716220653
LILACSAT-2              
1 40908U 15049K   19259.82574137  .00000116  00000-0  10022-4 0  9990
2 40908  97.4806 258.8382 0014447 250.0609 231.2175 15.13844936220442
XW-2F                   
1 40910U 15049M   19259.82856689  .00000577  00000-0  32180-4 0  9998
2 40910  97.4645 262.2398 0013266 233.4516 250.3677 15.17412198220682
XW-2B                   
1 40911U 15049N   19259.85662132  .00000429  00000-0  25869-4 0  9992
2 40911  97.4701 260.8004 0012603 241.8379 237.1925 15.15870883220561
KAITUO 1B               
1 40912U 15049P   19259.71580608  .00000620  00000-0  32203-4 0  9998
2 40912  97.4503 265.9108 0013677 213.9891 234.6613 15.19737787220985
TIANWANG 1C (TW-1C)     
1 40926U 15051B   19259.78375260  .00009044  00000-0  12525-3 0  9992
2 40926  97.1267 305.8872 0008865  46.1304  17.3943 15.57273665224173
TIANWANG 1A (TW-1A)     
1 40928U 15051D   19259.89191149  .00002312  00000-0  57578-4 0  9997
2 40928  97.1391 289.1893 0012618 102.6292  21.2865 15.41180615223064
LAPAN-A2                
1 40931U 15052B   19259.04624291  .00000624  00000-0 -22290-5 0  9997
2 40931   5.9930 139.2903 0013649 339.0158  21.0322 14.76612922214494
E-ST@R-II               
1 41459U 16025D   19259.79592896  .00001633  00000-0  86623-4 0  9990
2 41459  98.1018 350.8316 0167809  55.9278 305.7732 15.05646706186108
AAUSAT 4                
1 41460U 16025E   19259.79027076  .00001564  00000-0  81402-4 0  9998
2 41460  98.0965 352.2964 0157755  47.7482 313.7001 15.07603492186240
NUSAT-1 (FRESCO)        
1 41557U 16033B   19259.80373025  .00000830  00000-0  33697-4 0  9992
2 41557  97.4161 346.7792 0013211 346.4435  13.6448 15.27368911183840
BEESAT-4                
1 41619U 16040W   19259.12089560  .00000902  00000-0  40913-4 0  9991
2 41619  97.3595 319.6470 0012908  72.4460 287.8186 15.23291798167476
CAS-2T & KS-1Q          
1 41847U 16066G   19259.71658799  .00000012  00000-0  13017-4 0  9990
2 41847  98.6976 301.8386 0365288 327.2521  30.6485 14.38004805149939
NAYIF-1 (EO-88)         
1 42017U 17008BX  19259.22754120  .00001090  00000-0  45608-4 0  9996
2 42017  97.3958 325.3724 0005566 198.8726 161.2307 15.25707187143579
MAX VALIER SAT          
1 42778U 17036P   19259.13537945  .00000560  00000-0  27434-4 0  9993
2 42778  97.3461 314.7956 0010625 270.1263  89.8756 15.22129275123847
RADFXSAT (FOX-1B)       
1 43017U 17073E   19259.33293536  .00000247  00000-0  25237-4 0  9999
2 43017  97.7201 177.1844 0256840 226.3143 131.6531 14.78626964 98506
FOX-1D (AO-92)          
1 43137U 18004AC  19259.74184752  .00000707  00000-0  32548-4 0  9995
2 43137  97.4802 327.3132 0007874 306.7779  53.2734 15.23585093 93205
ES'HAIL 2               
1 43700U 18090A   19259.69643061  .00000138  00000-0  00000+0 0  9994
2 43700   0.0144 156.7345 0001652  37.0799  78.0394  1.00272046  3191
FOX-1CLIFF (AO-95)      
1 43770U 18099N   19259.20252222  .00000407  00000-0  42632-4 0  9993
2 43770  97.7388 329.8998 0015426  40.6066 319.6302 14.94807391 42795
ITASAT 1                
1 43786U 18099AE  19259.46493380  .00000225  00000-0  25671-4 0  9992
2 43786  97.7401 330.3784 0015890  33.7508 326.4721 14.95171954 42844
JY1SAT (JO-97)          
1 43803U 18099AX  19259.77621424 -.00000177  00000-0 -10745-4 0  9992
2 43803  97.7362 330.5801 0015967  33.3131 326.9091 14.95313915 42889
PSAT2 (NO-104)          
1 44354U 19036R   19258.49572430  .00008944  00000-0  13545-3 0  9994
2 44354  28.5355  25.8591 0384402 255.3070 100.4617 14.98331059 12312
BRICSAT2 (NO-103)       
1 44355U 19036S   19258.47674872  .00015680  00000-0  24114-3 0  9995
2 44355  28.5345  25.7109 0380124 255.5865 100.2254 14.99296368 12327
JAISAT-1                
1 44419U 19038F   19259.81238200  .00000617  00000-0  39215-4 0  9991
2 44419  97.4979 220.4124 0021983   1.8777 358.2532 15.12319548 11084
